[{"OBJECT_NAME":"ORBITER SN3","OBJECT_ID":"2023-084AE","EPOCH":"2026-03-09T23:12:21.976128","MEAN_MOTION":15.32943891,"ECCENTRICITY":0.00075889,"INCLINATION":97.61,"RA_OF_ASC_NODE":206.6768,"ARG_OF_PERICENTER":331.7947,"MEAN_ANOMALY":28.2883,"EPHEMERIS_TYPE":0,"CLASSIFICATION_TYPE":"U","NORAD_CAT_ID":56960,"ELEMENT_SET_NO":999,"REV_AT_EPOCH":15228,"BSTAR":0.00032835432,"MEAN_MOTION_DOT":0.00010378,"MEAN_MOTION_DDOT":0},{"OBJECT_NAME":"STARLINK-35737","OBJECT_ID":"2025-244P","EPOCH":"2026-03-09T16:53:28.367520","MEAN_MOTION":15.3017748,"ECCENTRICITY":0.00010124,"INCLINATION":53.1593,"RA_OF_ASC_NODE":229.7067,"ARG_OF_PERICENTER":58.869,"MEAN_ANOMALY":301.241,"EPHEMERIS_TYPE":0,"CLASSIFICATION_TYPE":"U","NORAD_CAT_ID":66219,"ELEMENT_SET_NO":999,"REV_AT_EPOCH":2166,"BSTAR":0.00098589878,"MEAN_MOTION_DOT":0.00028934,"MEAN_MOTION_DDOT":0}]
